OBJECT_NAME,OBJECT_ID,EPOCH,MEAN_MOTION,ECCENTRICITY,INCLINATION,RA_OF_ASC_NODE,ARG_OF_PERICENTER,MEAN_ANOMALY,EPHEMERIS_TYPE,CLASSIFICATION_TYPE,NORAD_CAT_ID,ELEMENT_SET_NO,REV_AT_EPOCH,BSTAR,MEAN_MOTION_DOT,MEAN_MOTION_DDOT
STARLINK-11661 [DTC],2025-085N,2026-06-13T10:30:06.473952,15.70928325,.0004456,43.0018,60.9954,265.8737,94.1621,0,U,63676,999,6595,.14232781E-2,.1871E-2,0
STARLINK-33816,2025-085P,2026-06-12T20:41:44.872224,15.27613490,.0002237,42.9999,213.5804,268.8123,91.2472,0,U,63677,999,6352,.73175331E-3,.1995E-3,0
STARLINK-33861,2025-085Q,2026-06-13T20:21:31.118112,15.27597422,.0001163,43.0010,208.0830,88.2430,271.8555,0,U,63678,999,6356,.55699E-3,.15104E-3,0
STARLINK-33850,2025-085R,2026-06-13T10:28:48.164448,15.27599375,.00037583,42.9999,210.1493,288.4826,71.5617,0,U,63679,999,6350,.60634044E-3,.16472E-3,0
STARLINK-33887,2025-085S,2026-06-13T20:00:01.999008,15.27597751,.0001684,42.9994,207.4980,273.1501,280.7214,0,U,63680,999,559,-.91509E-3,-.25372E-3,0
STARLINK-33886,2025-085T,2026-06-13T09:38:50.413632,15.27565824,.00010622,42.9970,209.8829,261.5457,98.5274,0,U,63681,999,6351,.54268309E-3,.14695E-3,0
STARLINK-33840,2025-085U,2026-06-12T20:43:35.705280,15.27615244,.0002251,43.0017,213.5886,265.8867,94.1727,0,U,63682,999,6342,.72897273E-3,.19874E-3,0
STARLINK-33853,2025-085W,2026-06-13T19:22:16.430304,15.27602976,.000245,42.9923,207.7596,278.6605,81.3969,0,U,63684,999,6357,.80325E-3,.21924E-3,0
STARLINK-33847,2025-085X,2026-06-13T20:01:08.160672,15.27600615,.0001447,43.0042,207.9691,265.6237,94.4449,0,U,63685,999,6357,.75955E-3,.20711E-3,0
STARLINK-33880,2025-085Y,2026-06-13T20:19:40.126080,15.27591150,.000179,43.0026,208.0709,293.5346,66.5317,0,U,63686,999,6368,.59756E-3,.16223E-3,0
STARLINK-33894,2025-087A,2026-06-13T15:21:28.780416,15.34399641,.0001364,53.1592,132.2078,92.0404,268.0754,0,U,63697,999,6391,.68548E-3,.22854E-3,0
STARLINK-33922,2025-087B,2026-06-13T15:22:33.282336,15.30204411,.0001776,53.1585,133.6286,84.5357,275.5847,0,U,63698,999,6388,.79115E-3,.23149E-3,0
STARLINK-33919,2025-087C,2026-06-13T15:09:01.714176,15.30213848,.0001551,53.1590,134.2769,88.6269,271.4910,0,U,63699,999,6388,.34629E-3,.9915E-4,0
STARLINK-33908,2025-087D,2026-06-13T04:48:29.923776,15.30176775,.00014469,53.1577,135.8557,82.4046,277.7119,0,U,63700,999,6382,.75120178E-3,.21939E-3,0
STARLINK-33950,2025-087E,2026-06-13T04:47:06.416448,15.31726321,.0001386,53.1582,135.8524,46.2779,313.8337,0,U,63701,999,6382,.97935612E-3,.30174E-3,0
STARLINK-33939,2025-087F,2026-06-13T05:40:44.507136,15.31711603,.0001212,53.1574,135.3729,95.7058,264.4082,0,U,63702,999,6383,.61795E-3,.18866E-3,0
STARLINK-33868,2025-087G,2026-06-13T04:54:36.239904,15.30157409,.00012226,53.1575,135.8776,78.4810,281.6328,0,U,63703,999,6382,.93706983E-3,.2746E-3,0
STARLINK-33937,2025-087H,2026-06-13T15:17:59.757216,15.30205729,.0001472,53.1595,133.6062,80.6054,279.5113,0,U,63704,999,6389,.45083E-3,.13019E-3,0
STARLINK-33848,2025-087J,2026-06-13T15:34:43.065984,15.30209483,.0001937,53.1585,133.6781,78.4867,281.6351,0,U,63705,999,6388,.84019E-3,.24615E-3,0
STARLINK-33995,2025-087K,2026-06-13T15:01:26.585760,15.30210339,.0001356,53.1583,134.2396,93.1471,266.9685,0,U,63706,999,6388,.62743E-3,.18275E-3,0
STARLINK-33982,2025-087L,2026-06-13T04:45:27.146304,15.30205507,.00013024,53.1581,135.8380,85.2851,274.8299,0,U,63707,999,6382,.76631192E-3,.22409E-3,0
STARLINK-33915,2025-087M,2026-06-13T05:02:10.436064,15.30214974,.00012143,53.1565,135.9119,90.5502,269.5637,0,U,63708,999,6382,.59306502E-3,.17255E-3,0
STARLINK-33862,2025-087N,2026-06-13T04:53:01.736448,15.30238898,.00015117,53.1561,135.8732,107.8479,252.2687,0,U,63709,999,6382,.108973E-2,.32094E-3,0
STARLINK-33920,2025-087P,2026-06-13T15:31:23.468160,15.31718889,.0000808,53.1591,133.6675,85.0455,275.0638,0,U,63710,999,6389,.11983E-2,.37025E-3,0
STARLINK-33580,2025-087Q,2026-06-13T15:38:06.982080,15.31711779,.0001375,53.1586,133.6923,91.1746,268.9413,0,U,63711,999,6389,.5345E-3,.16263E-3,0
STARLINK-33783,2025-087R,2026-06-13T04:20:13.463232,15.31719443,.00014682,53.1594,135.7322,88.5668,271.5501,0,U,63712,999,6382,.88339109E-3,.27164E-3,0
STARLINK-33773,2025-087S,2026-06-13T05:00:24.816384,15.31714005,.00012361,53.1560,135.1936,87.7360,272.3783,0,U,63713,999,6383,.67046353E-3,.20506E-3,0
STARLINK-33745,2025-087T,2026-06-13T15:27:06.575040,15.30201052,.0001581,53.1591,133.6392,100.0606,260.0573,0,U,63714,999,6389,.63958E-3,.18632E-3,0
STARLINK-33728,2025-087U,2026-06-13T15:37:44.897376,15.30203658,.0001444,53.1586,133.6843,106.0942,254.0218,0,U,63715,999,6389,.5599E-3,.16262E-3,0
STARLINK-33749,2025-087V,2026-06-13T15:24:40.188384,15.31720019,.0000825,53.1596,133.6342,63.2161,296.8924,0,U,63716,999,6389,.6245E-3,.19076E-3,0
STARLINK-33725,2025-087W,2026-06-13T04:43:55.998624,15.30212826,.00012611,53.1577,135.8314,82.6707,277.4437,0,U,63717,999,6382,.69889909E-3,.20405E-3,0
STARLINK-33641,2025-087X,2026-06-13T14:57:47.119392,15.31715318,.0001265,53.1575,133.5143,93.6632,266.4514,0,U,63718,999,6389,.77582E-3,.23798E-3,0
STARLINK-33727,2025-087Y,2026-06-13T15:18:26.775360,15.34408402,.0001072,53.1592,132.1897,103.2729,256.8393,0,U,63719,999,6391,.10308E-2,.34623E-3,0
STARLINK-33757,2025-087Z,2026-06-13T04:59:07.723392,15.30206937,.00012201,53.1568,135.8923,86.2863,273.8277,0,U,63720,999,6382,.72104643E-3,.21061E-3,0
STARLINK-33774,2025-087AA,2026-06-13T05:47:26.789856,15.31737434,.0001539,53.1589,135.3984,87.7116,272.4062,0,U,63721,999,6383,.36788E-3,.11081E-3,0
STARLINK-33767,2025-087AB,2026-06-13T15:39:15.892128,15.30200725,.0001422,53.1587,133.6911,91.4773,268.6391,0,U,63722,999,6389,.61647E-3,.17943E-3,0
STARLINK-33806,2025-087AC,2026-06-13T04:50:00.830400,15.30222357,.00012771,53.1572,135.8557,95.2428,264.8718,0,U,63723,999,6382,.67538435E-3,.19711E-3,0
STARLINK-11677 [DTC],2025-089A,2026-06-13T18:35:19.857696,15.70854223,.0002399,43.0016,73.3909,258.2817,101.7782,0,U,63751,999,6524,.12108E-2,.158007E-2,0
STARLINK-11702 [DTC],2025-089B,2026-06-13T01:09:56.405664,15.70911488,.00022721,43.0002,77.3937,252.3222,107.7398,0,U,63752,999,6513,.12233898E-2,.160074E-2,0
STARLINK-11706 [DTC],2025-089C,2026-06-13T00:47:00.170304,15.70921745,.00022966,43.0016,77.2667,248.0292,112.0331,0,U,63753,999,6513,.12858726E-2,.168518E-2,0
STARLINK-11662 [DTC],2025-089D,2026-06-13T01:25:13.382688,15.70861414,.00010957,43.0007,77.4774,250.1883,109.8866,0,U,63754,999,6518,.17305444E-2,.228007E-2,0
STARLINK-11681 [DTC],2025-089E,2026-06-13T10:49:53.469984,15.70935644,.00013669,43.0002,75.2650,309.9519,50.1229,0,U,63755,999,6519,.12332497E-2,.161554E-2,0
STARLINK-11688 [DTC],2025-089F,2026-06-13T01:17:35.211264,15.70935064,.00008771,43.0003,77.4356,219.1587,140.9217,0,U,63756,999,6502,.13327896E-2,.174909E-2,0
STARLINK-11676 [DTC],2025-089G,2026-06-13T11:12:38.667744,15.70853075,.0000938,42.9995,74.5004,306.7761,53.3021,0,U,63757,999,6509,.19333459E-2,.255548E-2,0
STARLINK-11705 [DTC],2025-089H,2026-06-13T01:32:52.577088,15.70934998,.00006751,42.9984,77.5187,183.2212,176.8651,0,U,63758,999,6508,.12289756E-2,.160977E-2,0
STARLINK-11703 [DTC],2025-089J,2026-06-13T01:02:17.644128,15.70908316,.00020686,43.0031,77.3486,251.9743,108.0900,0,U,63759,999,6513,.11392448E-2,.148808E-2,0
STARLINK-11701 [DTC],2025-089K,2026-06-13T11:20:16.446912,15.70923842,.00037165,43.0007,74.5382,273.1463,86.8979,0,U,63760,999,6520,.1609676E-2,.212238E-2,0
STARLINK-11660 [DTC],2025-089L,2026-06-13T20:44:55.991616,15.70869256,.000086,42.9987,72.3238,260.7263,99.3508,0,U,63761,999,6521,.14053E-2,.184149E-2,0
STARLINK-11699 [DTC],2025-089M,2026-06-13T11:05:14.417952,15.70985025,.00025234,42.9987,75.3508,52.0940,308.0155,0,U,63762,999,6519,.12844718E-2,.168792E-2,0
STARLINK-11693 [DTC],2025-089N,2026-06-13T01:03:36.496224,15.70872577,.00006989,43.0018,77.3548,235.8855,124.1947,0,U,63763,999,6502,.48881992E-3,.62834E-3,0
STARLINK-33760,2025-089P,2026-06-13T20:33:34.514208,15.27598312,.0001405,42.9956,222.2594,268.8159,91.2531,0,U,63764,999,6366,.51922E-3,.14061E-3,0
STARLINK-33941,2025-089Q,2026-06-13T00:00:02.000160,15.27588466,.00013398,43.0001,227.1277,258.9268,50.6030,0,U,63765,999,582,.59816561E-3,.16239E-3,0
STARLINK-33824,2025-089R,2026-06-11T08:00:01.999008,15.27575749,.0001405,43.0025,236.7658,271.4002,129.9382,0,U,63766,999,583,-.44275E-3,-.12424E-3,0
STARLINK-33808,2025-089S,2026-06-13T20:20:36.597984,15.27591091,.000361,42.9889,222.1820,277.6727,82.3715,0,U,63767,999,6366,.85047E-3,.23226E-3,0
STARLINK-33844,2025-089T,2026-06-11T11:23:14.360064,15.27589529,.0000314,43.0039,235.3410,223.6195,136.4632,0,U,63768,999,6330,.5018E-3,.13576E-3,0
STARLINK-33907,2025-089U,2026-06-13T20:28:01.150176,15.27596272,.0002307,42.9947,222.2244,277.4580,82.6009,0,U,63769,999,6361,.88039E-3,.24056E-3,0
STARLINK-33884,2025-089V,2026-06-13T10:29:46.687488,15.27602731,.00008322,42.9999,224.2673,272.7518,87.3239,0,U,63770,999,6355,.92186908E-3,.2521E-3,0
STARLINK-33841,2025-089W,2026-06-12T11:08:32.377632,15.27614322,.00003387,43.0025,229.8647,151.7708,208.3162,0,U,63771,999,6340,.77500592E-3,.21148E-3,0
STARLINK-33769,2025-089X,2026-06-13T10:26:05.150112,15.27640333,.00006514,43.0012,224.2499,148.6640,211.4251,0,U,63773,999,6359,.80397972E-3,.21968E-3,0
STARLINK-33914,2025-089Y,2026-06-13T14:50:43.577088,15.27591128,.0002165,43.0015,219.5498,275.0247,85.0357,0,U,63774,999,6367,.38611E-3,.10381E-3,0
STARLINK-33932,2025-091A,2026-06-12T21:22:01.424064,15.27590740,.00015568,42.9988,234.7336,278.0659,82.0016,0,U,63775,999,6350,.62373032E-3,.16947E-3,0
STARLINK-33930,2025-091B,2026-06-12T22:11:59.450496,15.27608586,.00002009,42.9975,235.0022,138.3026,221.7841,0,U,63776,999,6346,.63327086E-3,.1722E-3,0
STARLINK-33911,2025-091C,2026-06-13T14:33:36.194688,15.27572811,.000167,43.0003,223.6883,265.4197,94.6464,0,U,63777,999,6365,.54607E-3,.14791E-3,0
STARLINK-33938,2025-091D,2026-06-13T11:53:28.703904,15.27600005,.00008489,43.0012,231.5389,287.2252,72.8507,0,U,63778,999,6364,.64484367E-3,.17536E-3,0
